STARLINK-5385           
1 54821U 22177B   26187.03563576  .00000238  00000+0  18198-4 0  9991
2 54821  42.9902 187.6324 0004540 136.2646 223.8566 15.27592143195028
STARLINK-30753          
1 58175U 23167A   26187.49505576 -.00003336  00000+0 -11182-3 0  9992
2 58175  42.9995 192.5633 0001231 266.3267  93.7444 15.27558872149155
STARLINK-30824          
1 58176U 23167B   26187.69507556 -.00002224  00000+0 -71339-4 0  9991
2 58176  43.0015 191.4816 0001444 270.2178  89.8508 15.27562262149181
STARLINK-31405          
1 59248U 24049T   26187.49252391  .00001421  00000+0  61148-4 0  9997
2 59248  43.0004 192.7512 0000867 265.4686  94.6067 15.27570313130567
STARLINK-31789          
1 59644U 24082P   26187.69418404  .00009742  00000+0  36325-3 0  9997
2 59644  43.0008 187.6021 0005564 259.7960 100.2264 15.27555969123216
STARLINK-36416          
1 67630U 26020P   26187.69292110  .00025816  00000+0  94403-3 0  9990
2 67630  43.0017 187.7094 0002231 271.4207  88.6389 15.27591343 24318
