{
  "schema": "int-telemetry-real-tle-snapshot/v1",
  "source": "celestrak",
  "group": "STARLINK",
  "format": "celestrak-gp-json",
  "source_url": "https://celestrak.org/NORAD/elements/gp.php?NAME=STARLINK&FORMAT=JSON",
  "downloaded_at": "2026-07-07T07:29:27.338Z",
  "generated_at": "2026-07-07T07:29:37.186Z",
  "fingerprint": "4a165085",
  "shell_id": "starlink-real-43deg-490km",
  "catalog_count": 10705,
  "shell_count": 3263,
  "selected_count": 348,
  "mean_altitude_km": 490.18,
  "mean_inclination_deg": 43.0022,
  "mean_mean_motion_rev_per_day": 15.27582862,
  "layout": {
    "planes": 6,
    "satellites_per_plane": 58,
    "selection_strategy": "target-shell-raan-clusters-even-slot-sampling",
    "raan_cluster_threshold_deg": 3,
    "target_inclination_deg": 43,
    "target_altitude_km": 490,
    "selected_shell_key": "43.0deg-500km",
    "target_shell_distance": 0.46
  },
  "satellites": [
    {
      "satellite_id": "P04-S13",
      "norad_id": 58176,
      "satellite_name": "STARLINK-30824",
      "cospar_id": "2023-167B",
      "shell_id": "starlink-real-43deg-490km",
      "plane_id": 3,
      "slot_id": 12,
      "epoch": "2026-07-06T16:40:54.528384",
      "inclination": 43.0015,
      "raan": 191.48159999999996,
      "eccentricity": 0.0001444,
      "argument_of_perigee": 270.2178,
      "mean_anomaly": 89.85079999999999,
      "mean_motion": 15.27562262,
      "bstar": -0.000071339,
      "status": "active",
      "raw_omm": {
        "OBJECT_NAME": "STARLINK-30824",
        "OBJECT_ID": "2023-167B",
        "EPOCH": "2026-07-06T16:40:54.528384",
        "MEAN_MOTION": 15.27562262,
        "ECCENTRICITY": 0.0001444,
        "INCLINATION": 43.0015,
        "RA_OF_ASC_NODE": 191.4816,
        "ARG_OF_PERICENTER": 270.2178,
        "MEAN_ANOMALY": 89.8508,
        "EPHEMERIS_TYPE": 0,
        "CLASSIFICATION_TYPE": "U",
        "NORAD_CAT_ID": 58176,
        "ELEMENT_SET_NO": 999,
        "REV_AT_EPOCH": 14918,
        "BSTAR": -0.000071339,
        "MEAN_MOTION_DOT": -0.00002224,
        "MEAN_MOTION_DDOT": 0
      },
      "source": "celestrak",
      "source_url": "https://celestrak.org/NORAD/elements/gp.php?NAME=STARLINK&FORMAT=JSON",
      "catalog_fingerprint": "4a165085"
    },
    {
      "satellite_id": "P04-S14",
      "norad_id": 59644,
      "satellite_name": "STARLINK-31789",
      "cospar_id": "2024-082P",
      "shell_id": "starlink-real-43deg-490km",
      "plane_id": 3,
      "slot_id": 13,
      "epoch": "2026-07-06T16:39:37.501056",
      "inclination": 43.0008,
      "raan": 187.60210000000006,
      "eccentricity": 0.0005564,
      "argument_of_perigee": 259.79600000000005,
      "mean_anomaly": 100.22640000000001,
      "mean_motion": 15.27555969,
      "bstar": 0.00036325,
      "status": "active",
      "raw_omm": {
        "OBJECT_NAME": "STARLINK-31789",
        "OBJECT_ID": "2024-082P",
        "EPOCH": "2026-07-06T16:39:37.501056",
        "MEAN_MOTION": 15.27555969,
        "ECCENTRICITY": 0.0005564,
        "INCLINATION": 43.0008,
        "RA_OF_ASC_NODE": 187.6021,
        "ARG_OF_PERICENTER": 259.796,
        "MEAN_ANOMALY": 100.2264,
        "EPHEMERIS_TYPE": 0,
        "CLASSIFICATION_TYPE": "U",
        "NORAD_CAT_ID": 59644,
        "ELEMENT_SET_NO": 999,
        "REV_AT_EPOCH": 12321,
        "BSTAR": 0.00036325,
        "MEAN_MOTION_DOT": 0.00009742,
        "MEAN_MOTION_DDOT": 0
      },
      "source": "celestrak",
      "source_url": "https://celestrak.org/NORAD/elements/gp.php?NAME=STARLINK&FORMAT=JSON",
      "catalog_fingerprint": "4a165085"
    },
    {
      "satellite_id": "P04-S15",
      "norad_id": 67630,
      "satellite_name": "STARLINK-36416",
      "cospar_id": "2026-020P",
      "shell_id": "starlink-real-43deg-490km",
      "plane_id": 3,
      "slot_id": 14,
      "epoch": "2026-07-06T16:37:48.383040",
      "inclination": 43.0017,
      "raan": 187.70939999999996,
      "eccentricity": 0.0002231,
      "argument_of_perigee": 271.4207,
      "mean_anomaly": 88.63890000000004,
      "mean_motion": 15.27591343,
      "bstar": 0.00094403,
      "status": "active",
      "raw_omm": {
        "OBJECT_NAME": "STARLINK-36416",
        "OBJECT_ID": "2026-020P",
        "EPOCH": "2026-07-06T16:37:48.383040",
        "MEAN_MOTION": 15.27591343,
        "ECCENTRICITY": 0.0002231,
        "INCLINATION": 43.0017,
        "RA_OF_ASC_NODE": 187.7094,
        "ARG_OF_PERICENTER": 271.4207,
        "MEAN_ANOMALY": 88.6389,
        "EPHEMERIS_TYPE": 0,
        "CLASSIFICATION_TYPE": "U",
        "NORAD_CAT_ID": 67630,
        "ELEMENT_SET_NO": 999,
        "REV_AT_EPOCH": 2431,
        "BSTAR": 0.00094403,
        "MEAN_MOTION_DOT": 0.00025816,
        "MEAN_MOTION_DDOT": 0
      },
      "source": "celestrak",
      "source_url": "https://celestrak.org/NORAD/elements/gp.php?NAME=STARLINK&FORMAT=JSON",
      "catalog_fingerprint": "4a165085"
    },
    {
      "satellite_id": "P04-S16",
      "norad_id": 58175,
      "satellite_name": "STARLINK-30753",
      "cospar_id": "2023-167A",
      "shell_id": "starlink-real-43deg-490km",
      "plane_id": 3,
      "slot_id": 15,
      "epoch": "2026-07-06T11:52:52.817664",
      "inclination": 42.9995,
      "raan": 192.56330000000003,
      "eccentricity": 0.0001231,
      "argument_of_perigee": 266.3267000000001,
      "mean_anomaly": 93.74439999999998,
      "mean_motion": 15.27558872,
      "bstar": -0.00011182,
      "status": "active",
      "raw_omm": {
        "OBJECT_NAME": "STARLINK-30753",
        "OBJECT_ID": "2023-167A",
        "EPOCH": "2026-07-06T11:52:52.817664",
        "MEAN_MOTION": 15.27558872,
        "ECCENTRICITY": 0.0001231,
        "INCLINATION": 42.9995,
        "RA_OF_ASC_NODE": 192.5633,
        "ARG_OF_PERICENTER": 266.3267,
        "MEAN_ANOMALY": 93.7444,
        "EPHEMERIS_TYPE": 0,
        "CLASSIFICATION_TYPE": "U",
        "NORAD_CAT_ID": 58175,
        "ELEMENT_SET_NO": 999,
        "REV_AT_EPOCH": 14915,
        "BSTAR": -0.00011182,
        "MEAN_MOTION_DOT": -0.00003336,
        "MEAN_MOTION_DDOT": 0
      },
      "source": "celestrak",
      "source_url": "https://celestrak.org/NORAD/elements/gp.php?NAME=STARLINK&FORMAT=JSON",
      "catalog_fingerprint": "4a165085"
    },
    {
      "satellite_id": "P04-S17",
      "norad_id": 54821,
      "satellite_name": "STARLINK-5385",
      "cospar_id": "2022-177B",
      "shell_id": "starlink-real-43deg-490km",
      "plane_id": 3,
      "slot_id": 16,
      "epoch": "2026-07-06T00:51:18.929664",
      "inclination": 42.9902,
      "raan": 187.63239999999996,
      "eccentricity": 0.000454,
      "argument_of_perigee": 136.26459999999997,
      "mean_anomaly": 223.85659999999996,
      "mean_motion": 15.27592143,
      "bstar": 0.000018198,
      "status": "active",
      "raw_omm": {
        "OBJECT_NAME": "STARLINK-5385",
        "OBJECT_ID": "2022-177B",
        "EPOCH": "2026-07-06T00:51:18.929664",
        "MEAN_MOTION": 15.27592143,
        "ECCENTRICITY": 0.000454,
        "INCLINATION": 42.9902,
        "RA_OF_ASC_NODE": 187.6324,
        "ARG_OF_PERICENTER": 136.2646,
        "MEAN_ANOMALY": 223.8566,
        "EPHEMERIS_TYPE": 0,
        "CLASSIFICATION_TYPE": "U",
        "NORAD_CAT_ID": 54821,
        "ELEMENT_SET_NO": 999,
        "REV_AT_EPOCH": 19502,
        "BSTAR": 0.000018198,
        "MEAN_MOTION_DOT": 0.00000238,
        "MEAN_MOTION_DDOT": 0
      },
      "source": "celestrak",
      "source_url": "https://celestrak.org/NORAD/elements/gp.php?NAME=STARLINK&FORMAT=JSON",
      "catalog_fingerprint": "4a165085"
    },
    {
      "satellite_id": "P04-S18",
      "norad_id": 59248,
      "satellite_name": "STARLINK-31405",
      "cospar_id": "2024-049T",
      "shell_id": "starlink-real-43deg-490km",
      "plane_id": 3,
      "slot_id": 17,
      "epoch": "2026-07-06T11:49:14.065824",
      "inclination": 43.0004,
      "raan": 192.75120000000004,
      "eccentricity": 0.0000867,
      "argument_of_perigee": 265.4685999999999,
      "mean_anomaly": 94.60669999999999,
      "mean_motion": 15.27570313,
      "bstar": 0.000061148,
      "status": "active",
      "raw_omm": {
        "OBJECT_NAME": "STARLINK-31405",
        "OBJECT_ID": "2024-049T",
        "EPOCH": "2026-07-06T11:49:14.065824",
        "MEAN_MOTION": 15.27570313,
        "ECCENTRICITY": 0.0000867,
        "INCLINATION": 43.0004,
        "RA_OF_ASC_NODE": 192.7512,
        "ARG_OF_PERICENTER": 265.4686,
        "MEAN_ANOMALY": 94.6067,
        "EPHEMERIS_TYPE": 0,
        "CLASSIFICATION_TYPE": "U",
        "NORAD_CAT_ID": 59248,
        "ELEMENT_SET_NO": 999,
        "REV_AT_EPOCH": 13056,
        "BSTAR": 0.000061148,
        "MEAN_MOTION_DOT": 0.00001421,
        "MEAN_MOTION_DDOT": 0
      },
      "source": "celestrak",
      "source_url": "https://celestrak.org/NORAD/elements/gp.php?NAME=STARLINK&FORMAT=JSON",
      "catalog_fingerprint": "4a165085"
    }
  ]
}